[{"OBJECT_NAME":"ICESAT-2","OBJECT_ID":"2018-070A","EPOCH":"2026-03-09T22:54:12.225888","MEAN_MOTION":15.28328617,"ECCENTRICITY":0.00038245,"INCLINATION":91.9993,"RA_OF_ASC_NODE":264.2397,"ARG_OF_PERICENTER":123.8941,"MEAN_ANOMALY":236.2673,"EPHEMERIS_TYPE":0,"CLASSIFICATION_TYPE":"U","NORAD_CAT_ID":43613,"ELEMENT_SET_NO":999,"REV_AT_EPOCH":41730,"BSTAR":0.00014022643,"MEAN_MOTION_DOT":3.87e-5,"MEAN_MOTION_DDOT":0},{"OBJECT_NAME":"STARLINK-30888","OBJECT_ID":"2023-177V","EPOCH":"2026-03-09T04:15:24.711840","MEAN_MOTION":15.26740275,"ECCENTRICITY":0.00027351,"INCLINATION":43.003,"RA_OF_ASC_NODE":353.0914,"ARG_OF_PERICENTER":264.344,"MEAN_ANOMALY":95.71,"EPHEMERIS_TYPE":0,"CLASSIFICATION_TYPE":"U","NORAD_CAT_ID":58370,"ELEMENT_SET_NO":999,"REV_AT_EPOCH":12816,"BSTAR":5.4599292e-5,"MEAN_MOTION_DOT":1.205e-5,"MEAN_MOTION_DDOT":0}]
